GLOBALSTAR M057 [-]     
1 25943U 99058A   23243.63673671 -.00000123  00000+0 -27651-3 0  9998
2 25943  51.9995  48.5521 0003449 101.3445 258.7792 12.24771178 86606
GLOBALSTAR M059 [-]     
1 25944U 99058B   23244.10891553 -.00000118  00000+0 -39628-3 0  9994
2 25944  52.0006 179.3258 0000642  63.5239 309.2975 11.99952587 84153
GLOBALSTAR M056 [-]     
1 25945U 99058C   23244.35514090 -.00000099  00000+0 -13159-3 0  9999
2 25945  51.9947 197.4456 0001083 332.0707 195.6384 12.04767879 83741
GLOBALSTAR M031 [-]     
1 25946U 99058D   23244.40181759 -.00000120  00000+0 -30094-3 0  9990
2 25946  51.9951 128.8090 0001307 314.6703 216.4651 12.15995266 85128
GLOBALSTAR M039 [-]     
1 25961U 99062A   23244.32964395 -.00000077  00000+0  15040-3 0  9992
2 25961  51.9839 103.1802 0002923 353.1329   6.9497 12.62269049 97548
GLOBALSTAR M034 [-]     
1 25962U 99062B   23243.52107031 -.00000050  00000+0  49130-3 0  9998
2 25962  51.9857 275.6940 0014083 242.3638 265.9885 11.79414641 61028
GLOBALSTAR M029 [-]     
1 25963U 99062C   23243.68148302 -.00000063  00000+0  28888-3 0  9993
2 25963  51.9803  69.0759 0001773 277.3782 204.6510 11.99867019 90438
GLOBALSTAR M061 [-]     
1 25964U 99062D   23244.33718029 -.00000064  00000+0  27278-3 0  9999
2 25964  51.9789  88.9285 0005779 166.7781   3.7584 11.76749502 44378
